CCSDS_OMM_VERS = 2.0
CREATION_DATE  = 
ORIGINATOR     = 

OBJECT_NAME    = UNKNOWN
OBJECT_ID      = 
CENTER_NAME    = EARTH
REF_FRAME      = TEME
TIME_SYSTEM    = UTC
MEAN_ELEMENT_THEORY = SGP/SGP4

EPOCH          = 2026-03-27T10:15:52.765920
MEAN_MOTION    = 13.54230308
ECCENTRICITY   = .0689301
INCLINATION    = 65.6670
RA_OF_ASC_NODE = 102.3872
ARG_OF_PERICENTER = 181.0401
MEAN_ANOMALY   = 178.9265

EPHEMERIS_TYPE = 0
CLASSIFICATION_TYPE = U
NORAD_CAT_ID   = 87553
ELEMENT_SET_NO = 999
REV_AT_EPOCH   = 60542
BSTAR          = .40837E-3
MEAN_MOTION_DOT = .1229E-4
MEAN_MOTION_DDOT = 0

CCSDS_OMM_VERS = 2.0
CREATION_DATE  = 
ORIGINATOR     = 

OBJECT_NAME    = UNKNOWN
OBJECT_ID      = 
CENTER_NAME    = EARTH
REF_FRAME      = TEME
TIME_SYSTEM    = UTC
MEAN_ELEMENT_THEORY = SGP/SGP4

EPOCH          = 2026-03-27T09:02:51.391680
MEAN_MOTION    = 13.28713247
ECCENTRICITY   = .0054498
INCLINATION    = 101.7807
RA_OF_ASC_NODE = 320.7673
ARG_OF_PERICENTER = 142.0832
MEAN_ANOMALY   = 218.4139

EPHEMERIS_TYPE = 0
CLASSIFICATION_TYPE = U
NORAD_CAT_ID   = 87557
ELEMENT_SET_NO = 999
REV_AT_EPOCH   = 57892
BSTAR          = .88684E-2
MEAN_MOTION_DOT = .4044E-4
MEAN_MOTION_DDOT = 0

CCSDS_OMM_VERS = 2.0
CREATION_DATE  = 
ORIGINATOR     = 

OBJECT_NAME    = UNKNOWN
OBJECT_ID      = 
CENTER_NAME    = EARTH
REF_FRAME      = TEME
TIME_SYSTEM    = UTC
MEAN_ELEMENT_THEORY = SGP/SGP4

EPOCH          = 2026-03-27T10:34:12.123840
MEAN_MOTION    = 12.32164585
ECCENTRICITY   = .0175317
INCLINATION    = 101.9917
RA_OF_ASC_NODE = 146.0169
ARG_OF_PERICENTER = 101.8415
MEAN_ANOMALY   = 274.3791

EPHEMERIS_TYPE = 0
CLASSIFICATION_TYPE = U
NORAD_CAT_ID   = 87561
ELEMENT_SET_NO = 999
REV_AT_EPOCH   = 55533
BSTAR          = -.35421E-3
MEAN_MOTION_DOT = -.88E-6
MEAN_MOTION_DDOT = 0

CCSDS_OMM_VERS = 2.0
CREATION_DATE  = 
ORIGINATOR     = 

OBJECT_NAME    = UNKNOWN
OBJECT_ID      = 
CENTER_NAME    = EARTH
REF_FRAME      = TEME
TIME_SYSTEM    = UTC
MEAN_ELEMENT_THEORY = SGP/SGP4

EPOCH          = 2026-03-28T11:18:59.462784
MEAN_MOTION    = 14.06315917
ECCENTRICITY   = .0170679
INCLINATION    = 99.9536
RA_OF_ASC_NODE = 94.4839
ARG_OF_PERICENTER = 244.4220
MEAN_ANOMALY   = 113.9218

EPHEMERIS_TYPE = 0
CLASSIFICATION_TYPE = U
NORAD_CAT_ID   = 87565
ELEMENT_SET_NO = 999
REV_AT_EPOCH   = 63129
BSTAR          = .45771E-3
MEAN_MOTION_DOT = .807E-5
MEAN_MOTION_DDOT = 0

CCSDS_OMM_VERS = 2.0
CREATION_DATE  = 
ORIGINATOR     = 

OBJECT_NAME    = UNKNOWN
OBJECT_ID      = 
CENTER_NAME    = EARTH
REF_FRAME      = TEME
TIME_SYSTEM    = UTC
MEAN_ELEMENT_THEORY = SGP/SGP4

EPOCH          = 2026-03-28T06:14:51.914112
MEAN_MOTION    = 12.68545216
ECCENTRICITY   = .0055692
INCLINATION    = 101.9966
RA_OF_ASC_NODE = 273.6956
ARG_OF_PERICENTER = 46.6161
MEAN_ANOMALY   = 136.3851

EPHEMERIS_TYPE = 0
CLASSIFICATION_TYPE = U
NORAD_CAT_ID   = 87569
ELEMENT_SET_NO = 999
REV_AT_EPOCH   = 57184
BSTAR          = .17773E-3
MEAN_MOTION_DOT = -.13E-6
MEAN_MOTION_DDOT = 0

CCSDS_OMM_VERS = 2.0
CREATION_DATE  = 
ORIGINATOR     = 

OBJECT_NAME    = UNKNOWN
OBJECT_ID      = 
CENTER_NAME    = EARTH
REF_FRAME      = TEME
TIME_SYSTEM    = UTC
MEAN_ELEMENT_THEORY = SGP/SGP4

EPOCH          = 2026-03-28T01:32:30.671232
MEAN_MOTION    = 14.10476543
ECCENTRICITY   = .0025998
INCLINATION    = 98.7733
RA_OF_ASC_NODE = 126.7330
ARG_OF_PERICENTER = 348.3830
MEAN_ANOMALY   = 41.2894

EPHEMERIS_TYPE = 0
CLASSIFICATION_TYPE = U
NORAD_CAT_ID   = 87590
ELEMENT_SET_NO = 999
REV_AT_EPOCH   = 16909
BSTAR          = .30064E-3
MEAN_MOTION_DOT = .493E-5
MEAN_MOTION_DDOT = 0

CCSDS_OMM_VERS = 2.0
CREATION_DATE  = 
ORIGINATOR     = 

OBJECT_NAME    = UNKNOWN
OBJECT_ID      = 
CENTER_NAME    = EARTH
REF_FRAME      = TEME
TIME_SYSTEM    = UTC
MEAN_ELEMENT_THEORY = SGP/SGP4

EPOCH          = 2026-03-28T01:21:28.068768
MEAN_MOTION    = 12.47040440
ECCENTRICITY   = .0629273
INCLINATION    = 66.0351
RA_OF_ASC_NODE = 301.4604
ARG_OF_PERICENTER = 93.4485
MEAN_ANOMALY   = 60.3427

EPHEMERIS_TYPE = 0
CLASSIFICATION_TYPE = U
NORAD_CAT_ID   = 87616
ELEMENT_SET_NO = 999
REV_AT_EPOCH   = 54936
BSTAR          = .28464E-2
MEAN_MOTION_DOT = .794E-5
MEAN_MOTION_DDOT = 0

CCSDS_OMM_VERS = 2.0
CREATION_DATE  = 
ORIGINATOR     = 

OBJECT_NAME    = UNKNOWN
OBJECT_ID      = 
CENTER_NAME    = EARTH
REF_FRAME      = TEME
TIME_SYSTEM    = UTC
MEAN_ELEMENT_THEORY = SGP/SGP4

EPOCH          = 2026-03-28T07:20:57.268032
MEAN_MOTION    = 14.71522472
ECCENTRICITY   = .0094055
INCLINATION    = 98.6915
RA_OF_ASC_NODE = 36.6383
ARG_OF_PERICENTER = 278.4592
MEAN_ANOMALY   = 80.5961

EPHEMERIS_TYPE = 0
CLASSIFICATION_TYPE = U
NORAD_CAT_ID   = 87624
ELEMENT_SET_NO = 999
REV_AT_EPOCH   = 59579
BSTAR          = .92115E-3
MEAN_MOTION_DOT = .6069E-4
MEAN_MOTION_DDOT = 0

CCSDS_OMM_VERS = 2.0
CREATION_DATE  = 
ORIGINATOR     = 

OBJECT_NAME    = UNKNOWN
OBJECT_ID      = 
CENTER_NAME    = EARTH
REF_FRAME      = TEME
TIME_SYSTEM    = UTC
MEAN_ELEMENT_THEORY = SGP/SGP4

EPOCH          = 2026-03-27T07:14:22.439904
MEAN_MOTION    = 14.64485539
ECCENTRICITY   = .0030462
INCLINATION    = 100.2715
RA_OF_ASC_NODE = 291.9666
ARG_OF_PERICENTER = 334.3200
MEAN_ANOMALY   = 25.6481

EPHEMERIS_TYPE = 0
CLASSIFICATION_TYPE = U
NORAD_CAT_ID   = 87650
ELEMENT_SET_NO = 999
REV_AT_EPOCH   = 9505
BSTAR          = .17223E-2
MEAN_MOTION_DOT = .9127E-4
MEAN_MOTION_DDOT = 0

CCSDS_OMM_VERS = 2.0
CREATION_DATE  = 
ORIGINATOR     = 

OBJECT_NAME    = UNKNOWN
OBJECT_ID      = 
CENTER_NAME    = EARTH
REF_FRAME      = TEME
TIME_SYSTEM    = UTC
MEAN_ELEMENT_THEORY = SGP/SGP4

EPOCH          = 2026-03-27T20:14:17.991456
MEAN_MOTION    = 14.28372408
ECCENTRICITY   = .005472
INCLINATION    = 70.8557
RA_OF_ASC_NODE = 139.4993
ARG_OF_PERICENTER = 114.1630
MEAN_ANOMALY   = 246.5233

EPHEMERIS_TYPE = 0
CLASSIFICATION_TYPE = U
NORAD_CAT_ID   = 87672
ELEMENT_SET_NO = 999
REV_AT_EPOCH   = 63946
BSTAR          = .72645E-3
MEAN_MOTION_DOT = .1796E-4
MEAN_MOTION_DDOT = 0

CCSDS_OMM_VERS = 2.0
CREATION_DATE  = 
ORIGINATOR     = 

OBJECT_NAME    = UNKNOWN
OBJECT_ID      = 
CENTER_NAME    = EARTH
REF_FRAME      = TEME
TIME_SYSTEM    = UTC
MEAN_ELEMENT_THEORY = SGP/SGP4

EPOCH          = 2026-03-27T14:19:03.122688
MEAN_MOTION    = 13.71366843
ECCENTRICITY   = .0148704
INCLINATION    = 66.7362
RA_OF_ASC_NODE = 210.2593
ARG_OF_PERICENTER = 90.4692
MEAN_ANOMALY   = 271.3417

EPHEMERIS_TYPE = 0
CLASSIFICATION_TYPE = U
NORAD_CAT_ID   = 87681
ELEMENT_SET_NO = 999
REV_AT_EPOCH   = 61621
BSTAR          = .87995E-3
MEAN_MOTION_DOT = .783E-5
MEAN_MOTION_DDOT = 0

CCSDS_OMM_VERS = 2.0
CREATION_DATE  = 
ORIGINATOR     = 

OBJECT_NAME    = UNKNOWN
OBJECT_ID      = 
CENTER_NAME    = EARTH
REF_FRAME      = TEME
TIME_SYSTEM    = UTC
MEAN_ELEMENT_THEORY = SGP/SGP4

EPOCH          = 2026-03-28T08:18:58.354272
MEAN_MOTION    = 14.01756519
ECCENTRICITY   = .0582649
INCLINATION    = 65.7907
RA_OF_ASC_NODE = 79.1233
ARG_OF_PERICENTER = 353.4010
MEAN_ANOMALY   = 5.9617

EPHEMERIS_TYPE = 0
CLASSIFICATION_TYPE = U
NORAD_CAT_ID   = 87690
ELEMENT_SET_NO = 999
REV_AT_EPOCH   = 62217
BSTAR          = .15244E-2
MEAN_MOTION_DOT = .10753E-3
MEAN_MOTION_DDOT = 0

