UNKNOWN                 
1 87553U          26086.42769405  .00001229  00000+0  40837-3 0  9995
2 87553  65.6670 102.3872 0689301 181.0401 178.9265 13.54230308605429
UNKNOWN                 
1 87557U          26086.37698370  .00004044  00000+0  88684-2 0  9994
2 87557 101.7807 320.7673 0054498 142.0832 218.4139 13.28713247578923
UNKNOWN                 
1 87561U          26086.44041810 -.00000088  00000+0 -35421-3 0  9996
2 87561 101.9917 146.0169 0175317 101.8415 274.3791 12.32164585555339
UNKNOWN                 
1 87565U          26087.47152156  .00000807  00000+0  45771-3 0  9996
2 87565  99.9536  94.4839 0170679 244.4220 113.9218 14.06315917631292
UNKNOWN                 
1 87569U          26087.26032308 -.00000013  00000+0  17773-3 0  9994
2 87569 101.9966 273.6956 0055692  46.6161 136.3851 12.68545216571840
UNKNOWN                 
1 87590U          26087.06424388  .00000493  00000+0  30064-3 0  9998
2 87590  98.7733 126.7330 0025998 348.3830  41.2894 14.10476543169090
UNKNOWN                 
1 87616U          26087.05657487  .00000794  00000+0  28464-2 0  9998
2 87616  66.0351 301.4604 0629273  93.4485  60.3427 12.47040440549366
UNKNOWN                 
1 87624U          26087.30621838  .00006069  00000+0  92115-3 0  9992
2 87624  98.6915  36.6383 0094055 278.4592  80.5961 14.71522472595795
UNKNOWN                 
1 87650U          26086.30164861  .00009127  00000+0  17223-2 0  9992
2 87650 100.2715 291.9666 0030462 334.3200  25.6481 14.64485539 95057
UNKNOWN                 
1 87672U          26086.84326379  .00001796  00000+0  72645-3 0  9993
2 87672  70.8557 139.4993 0054720 114.1630 246.5233 14.28372408639468
UNKNOWN                 
1 87681U          26086.59656392  .00000783  00000+0  87995-3 0  9995
2 87681  66.7362 210.2593 0148704  90.4692 271.3417 13.71366843616211
UNKNOWN                 
1 87690U          26087.34650873  .00010753  00000+0  15244-2 0  9992
2 87690  65.7907  79.1233 0582649 353.4010   5.9617 14.01756519622176
